ZIYUAN 1-02C (ZY 1-02C) 
1 38038U 11079A   16139.11297676  .00000091  00000-0  46675-4 0  9991
2 38038  98.3903 208.8141 0001130 108.5361 251.5961 14.35427549230827
ZIYUAN 3 (ZY 3)         
1 38046U 12001A   16139.21887520  .00001934  00000-0  89255-4 0  9998
2 38046  97.3298 210.9508 0000883  56.1499  28.5442 15.21399139241903
RISAT 1                 
1 38248U 12017A   16138.87816270  .00000409  00000-0  29879-4 0  9996
2 38248  97.5627 145.9546 0003861 334.2716 144.3144 15.08963629223626
ARIRANG-3 (KOMPSAT-3)   
1 38338U 12025B   16138.75380518  .00000160  00000-0  41826-4 0  9993
2 38338  98.1607  76.1758 0010619 123.9114 236.3107 14.61408161213426
KANOPUS-V 1             
1 38707U 12039A   16139.09877976  .00001036  00000-0  51699-4 0  9997
2 38707  97.4524  55.9801 0002027  80.9050  33.0016 15.19713061212045
SPOT 6                  
1 38755U 12047A   16139.07764995  .00000085  00000-0  28135-4 0  9995
2 38755  98.1859 206.5693 0001585  94.7155 265.4228 14.58558247196342
PLEIADES 1B             
1 39019U 12068A   16139.09509050  .00000095  00000-0  30212-4 0  9993
2 39019  98.2031 213.8382 0001565  83.7848 276.3532 14.58547617184121
GOKTURK 2               
1 39030U 12073A   16139.05679934  .00000077  00000-0  22821-4 0  9994
2 39030  98.0372  32.5078 0013743 299.4190  60.5643 14.65775313182482
LANDSAT 8               
1 39084U 13008A   16138.75890055  .00000115  00000-0  35618-4 0  9998
2 39084  98.2255 208.8411 0001381  90.6723 269.4634 14.57103075173470
SARAL                   
1 39086U 13009A   16138.14159203  .00000053  00000-0  35721-4 0  9993
2 39086  98.5418 325.9162 0001932  82.3848 277.7555 14.32261075168429
GAOFEN 1                
1 39150U 13018A   16138.75178544  .00000205  00000-0  36845-4 0  9998
2 39150  97.9757 221.8327 0017194 250.0045 109.9315 14.76510933164892
VNREDSAT 1              
1 39160U 13021B   16139.07107399  .00000185  00000-0  45182-4 0  9990
2 39160  98.1171 216.0180 0001428  90.3792 269.7575 14.62925490161833
ARIRANG-5 (KOMPSAT-5)   
1 39227U 13042A   16139.20521345 -.00000049  00000-0  82673-6 0  9991
2 39227  97.6038 324.3862 0001506  62.2633 350.2311 15.04520910150301
YAOGAN 18               
1 39363U 13059A   16138.49887613  .00001794  00000-0  91982-4 0  9991
2 39363  97.4366 208.9334 0000939  64.6260  49.9570 15.17819209141299
SKYSAT-1                
1 39418U 13066C   16139.12461195  .00001290  00000-0  11336-3 0  9999
2 39418  97.7277 220.6264 0021471 165.1383 195.0485 14.98153185135927
DUBAISAT-2              
1 39419U 13066D   16139.09815826  .00000820  00000-0  83538-4 0  9992
2 39419  97.7167 213.9438 0015328 139.1978 221.0451 14.93294848135536
GPM-CORE                
1 39574U 14009C   16137.53873908  .00008501  00000-0  12479-3 0  9993
2 39574  65.0112 188.6512 0011566 288.0863  71.9023 15.56088899125829
SENTINEL-1A             
1 39634U 14016A   16139.08149691  .00000052  00000-0  20849-4 0  9999
2 39634  98.1827 146.3584 0001461  78.5016 281.6356 14.59198746113079
KAZEOSAT 1              
1 39731U 14024A   16139.11419757  .00000058  00000-0  31195-4 0  9995
2 39731  98.4515 216.7751 0001467  91.4184 268.7176 14.41995862107959
ALOS-2                  
1 39766U 14029A   16138.73336603 -.00000218  00000-0 -22316-4 0  9998
2 39766  97.9205 235.7420 0001800  87.2152 272.9279 14.79468330107137
KAZEOSAT 2              
1 40010U 14033A   16139.03197533  .00000152  00000-0  25765-4 0  9994
2 40010  97.9264  39.3745 0018238 118.9495 241.3560 14.82079129103417
HODOYOSHI-4             
1 40011U 14033B   16139.05592348  .00000303  00000-0  46117-4 0  9992
2 40011  97.9217  37.0608 0028174 112.3566 248.0651 14.80677070103283
DEIMOS-2                
1 40013U 14033D   16139.05901693  .00000501  00000-0  65637-4 0  9999
2 40013  97.9119  40.7138 0001720 110.6737 249.4668 14.84632016103574
HODOYOSHI-3             
1 40015U 14033F   16139.12104398  .00000395  00000-0  61299-4 0  9997
2 40015  97.9163  34.0759 0038554 113.8788 246.6470 14.78046632103112
SPOT 7                  
1 40053U 14034A   16139.17990431 -.00000046  00000-0  00000+0 0  9998
2 40053  98.2010 206.4694 0001320  81.5738 278.5617 14.58552992100291
SKYSAT-2                
1 40072U 14037D   16139.20486625  .00000240  00000-0  38555-4 0  9997
2 40072  98.3285 229.0505 0005284 234.3863 125.6931 14.80826255100527
WORLDVIEW-3 (WV-3)      
1 40115U 14048A   16138.80661659  .00000281  00000-0  39136-4 0  9995
2 40115  97.9008 217.0682 0002041  87.6163 272.5276 14.85122850 95438
YAOGAN 21               
1 40143U 14053A   16139.21044356  .00002988  00000-0  12238-3 0  9996
2 40143  97.3502 214.4551 0013652 150.1419 294.8549 15.24986847 94211
YAOGAN 22               
1 40275U 14063A   16139.05978705 -.00000044  00000-0  00000+0 0  9991
2 40275 100.3772 253.7747 0005380 247.1845 112.8711 13.15309265 75695
ASNARO                  
1 40298U 14070A   16138.85460726  .00003114  00000-0  14949-3 0  9991
2 40298  97.4338 221.4367 0002280  94.1506  17.1606 15.19597157 84824
HODOYOSHI-1             
1 40299U 14070B   16139.07706054  .00002038  00000-0  94171-4 0  9994
2 40299  97.4298 221.3520 0014868  43.4489  71.7762 15.21242622 84851
CHUBUSAT-1              
1 40300U 14070C   16139.11701758  .00002162  00000-0  10372-3 0  9996
2 40300  97.4258 219.7062 0022530  47.1095  13.4982 15.19743599 84764
QSAT-EOS                
1 40301U 14070D   16138.90882008  .00004278  00000-0  19414-3 0  9997
2 40301  97.4199 218.8003 0030716  46.7559  76.9654 15.20922183 84703
TSUBAME                 
1 40302U 14070E   16138.79953119  .00002447  00000-0  13097-3 0  9994
2 40302  97.4153 214.9703 0042554  57.7878  57.5811 15.15195223 84450
YAOGAN 23               
1 40305U 14071A   16138.77826323  .00003076  00000-0  15514-3 0  9997
2 40305  97.3916  79.0323 0001808  50.0192  27.9027 15.17870027 83441
YAOGAN 24               
1 40310U 14072A   16139.06655315  .00000245  00000-0  42141-4 0  9990
2 40310  97.9631 257.4600 0015582 263.1850  96.7571 14.76972646 80392
CBERS-4                 
1 40336U 14079A   16138.77599823  .00000039  00000-0  28819-4 0  9990
2 40336  98.4912 214.4458 0001569 101.7364 258.3994 14.35448758 75687
RESURS P2               
1 40360U 14087A   16139.23134344  .00001841  00000-0  62109-4 0  9993
2 40360  97.2804 233.5490 0006129   4.9620  52.1346 15.31956146 77916
YAOGAN 26               
1 40362U 14088A   16139.09084078  .00003566  00000-0  13930-3 0  9991
2 40362  97.3872 217.0947 0001778 142.4741 310.9179 15.26527419 77487
SMAP                    
1 40376U 15003A   16139.10687367  .00000135  00000-0  35218-4 0  9999
2 40376  98.1219 146.6154 0001784  59.3061 300.8323 14.63397266 69116
KOMPSAT 3A              
1 40536U 15014A   16139.23579758  .00001630  00000-0  98826-4 0  9992
2 40536  97.5531  79.0853 0008120 273.1362 225.7424 15.11942743 63368
SENTINEL-2A             
1 40697U 15028A   16138.37541038  .00000117  00000-0  61133-4 0  9999
2 40697  98.5681 213.0300 0001333 100.1059 260.0288 14.30817754 47096
CARBONITE 1 (CBNT-1)    
1 40718U 15032D   16138.65147703  .00000090  00000-0  21182-4 0  9990
2 40718  98.0150  30.0328 0016395 332.3843  27.6531 14.74415325 45965
YAOGAN 27               
1 40878U 15040A   16139.11272749 -.00000045  00000-0  00000+0 0  9999
2 40878 100.4510 199.7097 0008724  37.7328 322.4403 13.15947986 34854
LAPAN-A2                
1 40931U 15052B   16138.61407356  .00000820  00000-0  25319-4 0  9995
2 40931   5.9980 173.1362 0013654  44.3716 315.7483 14.76459556 34401
YAOGAN 28               
1 41026U 15064A   16139.20855591  .00003606  00000-0  12622-3 0  9995
2 41026  97.2674 268.2586 0006830 290.0020 188.7115 15.30119456 29352
YAOGAN 29               
1 41038U 15069A   16139.11531182  .00000111  00000-0  21254-4 0  9990
2 41038  97.8584 122.5789 0002083  72.5570 287.5872 14.80305479 25638
JASON-3                 
1 41240U 16002A   16138.39963894  .00000169  00000-0  10000-2 0  9999
2 41240  66.0425 224.1960 0008135 270.6047  89.3995 12.80932252 15455
SENTINEL-3A             
1 41335U 16011A   16139.11746554 -.00000044  00000-0  00000+0 0  9996
2 41335  98.6277 206.1989 0001362 103.7163 256.4171 14.26735989 13021
